STARLINK-3517           
1 51735U 22016X   23114.09194603  .00017380  00000+0  11068-2 0  9991
2 51735  53.2168 355.4349 0001437  82.2020 277.9136 15.08860549 66070
STARLINK-3447           
1 51736U 22016Y   23113.67978740  .00002587  00000+0  18053-3 0  9992
2 51736  53.2164 357.2882 0001223 102.9715 257.1414 15.08848140 64893
STARLINK-3509           
1 51737U 22016Z   23114.08826466  .00028802  00000+0  18189-2 0  9993
2 51737  53.2169 355.4527 0001356  79.0833 281.0312 15.08869551 66015
STARLINK-3515           
1 51738U 22016AA  23113.67243001  .00002909  00000+0  20075-3 0  9994
2 51738  53.2168 357.3181 0001388  82.6833 277.4317 15.08842406 64895
STARLINK-3516           
1 51739U 22016AB  23114.08090453  .00012816  00000+0  82148-3 0  9999
2 51739  53.2168 355.4816 0001343  91.4290 268.6856 15.08856028 66073
STARLINK-3500           
1 51740U 22016AC  23113.99626647  .00006514  00000+0  42676-3 0  9990
2 51740  53.2174 355.8654 0001444  92.4694 267.6463 15.08859577 66005
STARLINK-3520           
1 51741U 22016AD  23113.67610789  .00007195  00000+0  46963-3 0  9995
2 51741  53.2157 357.3007 0001221 117.2944 242.8172 15.08845382 64899
STARLINK-3521           
1 51742U 22016AE  23114.12233891  .00014286  00000+0  91307-3 0  9993
2 51742  53.2169 355.2707 0000788  97.3835 262.7247 15.08870617 66098
STARLINK-3512           
1 51743U 22016AF  23114.08646525  .00002957  00000+0  20374-3 0  9999
2 51743  53.2177 345.4778 0001482  98.7731 261.3429 15.08849122 66228
STARLINK-3452           
1 51744U 22016AG  23113.12779101  .00004162  00000+0  27939-3 0  9995
2 51744  53.2170 359.7926 0000437 105.8099 254.2942 15.08843702 64813
STARLINK-3449           
1 51745U 22016AH  23113.80122972  .00021012  00000+0  13342-2 0  9994
2 51745  53.2169 356.7398 0001198  96.3007 263.8121 15.08845072 64918
STARLINK-3502           
1 51746U 22016AJ  23113.75159235  .00001960  00000+0  14122-3 0  9999
2 51746  53.2168 346.9735 0000946  79.3650 280.7448 15.08836323 65043
STARLINK-3446           
1 51747U 22016AK  23113.66235483  .00008071  00000+0  52460-3 0  9997
2 51747  53.2165 357.4136 0001421  73.0364 287.0784 15.08841098 64895
STARLINK-3501           
1 51748U 22016AL  23113.67702862  .00014968  00000+0  95640-3 0  9998
2 51748  53.2168 347.2977 0001039  90.2431 269.8680 15.08846290 65039
STARLINK-3451           
1 51749U 22016AM  23113.91667824 -.00071738  00000+0 -45304-2 0  9995
2 51749  53.2177 356.4057 0001007 107.3096 320.1029 15.08874852  1306
STARLINK-3505           
1 51750U 22016AN  23114.06710944  .00028450  00000+0  17974-2 0  9999
2 51750  53.2169 345.5459 0001253  87.1709 272.9427 15.08861463 66214
STARLINK-3506           
1 51751U 22016AP  23113.74694714  .00003102  00000+0  21291-3 0  9995
2 51751  53.2170 346.9852 0001388 106.6862 253.4282 15.08843419 65049
STARLINK-3511           
1 51752U 22016AQ  23114.06342626  .00005028  00000+0  33364-3 0  9997
2 51752  53.2181 345.5643 0001617  84.6732 275.4445 15.08857129 66208
STARLINK-3507           
1 51753U 22016AR  23113.73958944  .00005905  00000+0  38875-3 0  9993
2 51753  53.2172 347.0182 0001339  84.5589 275.5555 15.08842766 65049
STARLINK-3457           
1 51754U 22016AS  23113.72551128  .00128116  00000+0  78122-2 0  9994
2 51754  53.2159 347.0747 0001302  64.2427 295.8700 15.09357266 65042
STARLINK-3460           
1 51755U 22016AT  23113.66231066  .00002397  00000+0  16861-3 0  9999
2 51755  53.2176 347.3654 0001477  73.0939 287.0215 15.08845244 65031
STARLINK-3513           
1 51756U 22016AU  23113.69910980  .00000487  00000+0  48649-4 0  9990
2 51756  53.2176 347.2003 0000781  95.2598 264.8483 15.08840430 65046
STARLINK-3459           
1 51757U 22016AV  23113.63015049  .00000909  00000+0  75166-4 0  9990
2 51757  53.2179 347.5239 0001486  65.0111 295.1035 15.08841228 66141
STARLINK-3458           
1 51758U 22016AW  23113.68806119 -.00000846  00000+0 -35070-4 0  9994
2 51758  53.2180 347.2027 0000921  99.2281 260.8815 15.08840308 66183
STARLINK-3456           
1 51759U 22016AX  23113.69174973 -.00000074  00000+0  13433-4 0  9993
2 51759  53.2160 347.2317 0000954 104.8942 255.2156 15.08840830 65047
STARLINK-3622           
1 51768U 22017A   23114.11954715  .00024249  00000+0  15349-2 0  9997
2 51768  53.2165  15.3086 0001395 101.6322 258.4827 15.08876997 65453
STARLINK-3621           
1 51769U 22017B   23114.11218394  .00001318  00000+0  10083-3 0  9997
2 51769  53.2182  15.3440 0001172  93.4904 266.6223 15.08850301 65456
STARLINK-3612           
1 51770U 22017C   23114.04962249  .00001334  00000+0  10185-3 0  9997
2 51770  53.2184  15.6283 0001188  96.0820 264.0308 15.08860019 65443
STARLINK-3614           
1 51771U 22017D   23114.10946316  .00004074  00000+0  27386-3 0  9997
2 51771  53.2169  15.3559 0001386  85.3993 274.7158 15.08850314 65451
STARLINK-3623           
1 51772U 22017E   23114.10115196  .00002193  00000+0  15585-3 0  9990
2 51772  53.2176  15.3978 0001582  96.3461 263.7711 15.08835260 65507
STARLINK-3624           
1 51773U 22017F   23114.10850360  .00006078  00000+0  39954-3 0  9992
2 51773  53.2169  15.3591 0001054 122.2636 237.8458 15.08849588 65461
STARLINK-3629           
1 51774U 22017G   23114.09378184  .00001197  00000+0  93249-4 0  9995
2 51774  53.2189  15.4330 0001151  96.7321 263.3802 15.08853672 65466
STARLINK-3620           
1 51775U 22017H   23114.10482656  .00011160  00000+0  71797-3 0  9992
2 51775  53.2166  15.3769 0002113 106.5789 253.5435 15.08849446 65450
STARLINK-3608           
1 51776U 22017J   23114.15633880  .00004612  00000+0  30746-3 0  9998
2 51776  53.2170  15.1455 0001047  99.9574 260.1537 15.08864145 65469
STARLINK-3625           
1 51777U 22017K   23114.16097421  .00002640  00000+0  18380-3 0  9994
2 51777  53.2206  15.0980 0001733 106.5277 253.5906 15.08857061 65475
STARLINK-3615           
1 51778U 22017L   23113.70093337  .00005432  00000+0  35902-3 0  9997
2 51778  53.2165   7.0715 0001690  76.3098 283.8082 15.08849076 63896
STARLINK-3611           
1 51779U 22017M   23113.75522707  .00001468  00000+0  11028-3 0  9999
2 51779  53.2181  16.9475 0001134  89.9484 270.1638 15.08847995 63916
STARLINK-3617           
1 51780U 22017N   23114.14530276  .00009237  00000+0  59718-3 0  9995
2 51780  53.2188  15.2245 0001531 101.4293 258.6871 15.08870867 65513
STARLINK-3580           
1 51781U 22017P   23114.14898140  .00017358  00000+0  11047-2 0  9998
2 51781  53.2192  15.1798 0001517  90.8930 269.2236 15.08882792 65472
STARLINK-3616           
1 51782U 22017Q   23113.90246354  .00002661  00000+0  18518-3 0  9998
2 51782  53.2171  26.3006 0000960 113.3031 246.8063 15.08842836 63551
STARLINK-3628           
1 51783U 22017R   23113.75251294  .00000056  00000+0  21621-4 0  9997
2 51783  53.2176  17.0081 0001049  95.7207 264.3905 15.08842613 63760
STARLINK-3632           
1 51784U 22017S   23113.76535108  .00010910  00000+0  70238-3 0  9995
2 51784  53.2171  26.9011 0001442  92.7588 267.3569 15.08847721 63623
STARLINK-3646           
1 51785U 22017T   23113.74418705  .00004160  00000+0  27924-3 0  9991
2 51785  53.2167  16.9950 0001030  95.3299 264.7811 15.08850111 63764
STARLINK-3638           
1 51786U 22017U   23113.75798885  .00010599  00000+0  68284-3 0  9990
2 51786  53.2173  26.9360 0001176 100.1877 259.9248 15.08848381 63627
STARLINK-3619           
1 51787U 22017V   23113.04407014  .00021976  00000+0  13941-2 0  9994
2 51787  53.2176  30.1404 0001202 100.7386 259.3742 15.08852756 63510
STARLINK-3641           
1 51788U 22017W   23113.08455018  .00003471  00000+0  23604-3 0  9994
2 51788  53.2176  29.9560 0001201 108.9068 251.2054 15.08847817 65168
STARLINK-3639           
1 51789U 22017X   23113.76166861 -.00000274  00000+0  84048-6 0  9996
2 51789  53.2165  26.9195 0001174  88.9012 271.2115 15.08843409 63625
STARLINK-3631           
1 51790U 22017Y   23113.08088193  .00000036  00000+0  20363-4 0  9997
2 51790  53.2188  29.9718 0001101  75.6421 284.4694 15.08833976 65216
STARLINK-3602           
1 51791U 22017Z   23113.75430898  .00020498  00000+0  13018-2 0  9996
2 51791  53.2173  26.9527 0001364  78.4203 281.6942 15.08852829 65264
STARLINK-3626           
1 51792U 22017AA  23113.20598799  .00001541  00000+0  11484-3 0  9996
2 51792  53.2183  29.4100 0001423  79.0049 281.1103 15.08847820 65238
STARLINK-3633           
1 51793U 22017AB  23113.88311058  .00000155  00000+0  27834-4 0  9999
2 51793  53.2183  26.3744 0001204  87.4430 272.6700 15.08845106 65337
STARLINK-3573           
1 51794U 22017AC  23114.19221192  .00005895  00000+0  38782-3 0  9993
2 51794  53.2182  24.9853 0000982 102.0374 258.0728 15.08872669 65337
STARLINK-3586           
1 51795U 22017AD  23113.20230120  .00002468  00000+0  17305-3 0  9997
2 51795  53.2185  29.4295 0000957  89.9380 270.1722 15.08852990 65180
STARLINK-3630           
1 51796U 22017AE  23113.05510861  .00000970  00000+0  79013-4 0  9995
2 51796  53.2173  30.0956 0000603  89.0938 271.0123 15.08842702 65150
STARLINK-3627           
1 51797U 22017AF  23114.11777348  .00286406  00000+0  12002-1 0  9991
2 51797  53.2130  20.2575 0003729 103.0287 257.1128 15.21772056 65449
STARLINK-3634           
1 51798U 22017AG  23114.17750151  .00014950  00000+0  95443-3 0  9996
2 51798  53.2179  25.0538 0001100  95.0569 265.0549 15.08877580 65379
STARLINK-3637           
1 51799U 22017AH  23113.12870460  .00005492  00000+0  36273-3 0  9994
2 51799  53.2178  29.7609 0001426 108.9211 251.1936 15.08858470 65179
STARLINK-3600           
1 51800U 22017AJ  23113.90149994  .00001437  00000+0  10830-3 0  9990
2 51800  53.2183  26.2411 0001122  92.7291 267.3829 15.08848782 65335
STARLINK-3592           
1 51801U 22017AK  23113.19126026  .00004152  00000+0  27865-3 0  9996
2 51801  53.2159  29.4829 0000588  99.2878 260.8180 15.08858684 65188
